CCSDS_OMM_VERS = 2.0
CREATION_DATE  = 
ORIGINATOR     = 

OBJECT_NAME    = STARLINK-36858
OBJECT_ID      = 2026-040G
CENTER_NAME    = EARTH
REF_FRAME      = TEME
TIME_SYSTEM    = UTC
MEAN_ELEMENT_THEORY = SGP/SGP4

EPOCH          = 2026-03-24T12:55:13.776960
MEAN_MOTION    = 15.75331784
ECCENTRICITY   = .00016946
INCLINATION    = 97.2853
RA_OF_ASC_NODE = 32.8877
ARG_OF_PERICENTER = 78.8231
MEAN_ANOMALY   = 281.3225

EPHEMERIS_TYPE = 0
CLASSIFICATION_TYPE = U
NORAD_CAT_ID   = 68021
ELEMENT_SET_NO = 999
REV_AT_EPOCH   = 370
BSTAR          = .17848498E-2
MEAN_MOTION_DOT = .276588E-2
MEAN_MOTION_DDOT = 0

CCSDS_OMM_VERS = 2.0
CREATION_DATE  = 
ORIGINATOR     = 

OBJECT_NAME    = STARLINK-36916
OBJECT_ID      = 2026-040H
CENTER_NAME    = EARTH
REF_FRAME      = TEME
TIME_SYSTEM    = UTC
MEAN_ELEMENT_THEORY = SGP/SGP4

EPOCH          = 2026-03-26T19:51:44.439552
MEAN_MOTION    = 15.75375377
ECCENTRICITY   = .0003062
INCLINATION    = 97.2852
RA_OF_ASC_NODE = 35.1261
ARG_OF_PERICENTER = 118.2602
MEAN_ANOMALY   = 241.8973

EPHEMERIS_TYPE = 0
CLASSIFICATION_TYPE = U
NORAD_CAT_ID   = 68022
ELEMENT_SET_NO = 999
REV_AT_EPOCH   = 405
BSTAR          = .25217E-2
MEAN_MOTION_DOT = .397207E-2
MEAN_MOTION_DDOT = 0

CCSDS_OMM_VERS = 2.0
CREATION_DATE  = 
ORIGINATOR     = 

OBJECT_NAME    = STARLINK-36871
OBJECT_ID      = 2026-040J
CENTER_NAME    = EARTH
REF_FRAME      = TEME
TIME_SYSTEM    = UTC
MEAN_ELEMENT_THEORY = SGP/SGP4

EPOCH          = 2026-03-26T09:10:53.360256
MEAN_MOTION    = 15.75183547
ECCENTRICITY   = .0002797
INCLINATION    = 97.2872
RA_OF_ASC_NODE = 34.6586
ARG_OF_PERICENTER = 92.2067
MEAN_ANOMALY   = 267.9519

EPHEMERIS_TYPE = 0
CLASSIFICATION_TYPE = U
NORAD_CAT_ID   = 68023
ELEMENT_SET_NO = 999
REV_AT_EPOCH   = 398
BSTAR          = .17676E-2
MEAN_MOTION_DOT = .27204E-2
MEAN_MOTION_DDOT = 0

CCSDS_OMM_VERS = 2.0
CREATION_DATE  = 
ORIGINATOR     = 

OBJECT_NAME    = STARLINK-36891
OBJECT_ID      = 2026-040K
CENTER_NAME    = EARTH
REF_FRAME      = TEME
TIME_SYSTEM    = UTC
MEAN_ELEMENT_THEORY = SGP/SGP4

EPOCH          = 2026-03-26T13:44:18.608640
MEAN_MOTION    = 15.75227538
ECCENTRICITY   = .0002001
INCLINATION    = 97.2865
RA_OF_ASC_NODE = 34.8608
ARG_OF_PERICENTER = 70.3128
MEAN_ANOMALY   = 289.8353

EPHEMERIS_TYPE = 0
CLASSIFICATION_TYPE = U
NORAD_CAT_ID   = 68024
ELEMENT_SET_NO = 999
REV_AT_EPOCH   = 401
BSTAR          = .13299E-2
MEAN_MOTION_DOT = .203367E-2
MEAN_MOTION_DDOT = 0

CCSDS_OMM_VERS = 2.0
CREATION_DATE  = 
ORIGINATOR     = 

OBJECT_NAME    = STARLINK-36378
OBJECT_ID      = 2026-040L
CENTER_NAME    = EARTH
REF_FRAME      = TEME
TIME_SYSTEM    = UTC
MEAN_ELEMENT_THEORY = SGP/SGP4

EPOCH          = 2026-03-26T19:48:10.762848
MEAN_MOTION    = 15.75277100
ECCENTRICITY   = .0001709
INCLINATION    = 97.2851
RA_OF_ASC_NODE = 35.1324
ARG_OF_PERICENTER = 118.0918
MEAN_ANOMALY   = 242.0521

EPHEMERIS_TYPE = 0
CLASSIFICATION_TYPE = U
NORAD_CAT_ID   = 68025
ELEMENT_SET_NO = 999
REV_AT_EPOCH   = 405
BSTAR          = .12353E-2
MEAN_MOTION_DOT = .188969E-2
MEAN_MOTION_DDOT = 0

CCSDS_OMM_VERS = 2.0
CREATION_DATE  = 
ORIGINATOR     = 

OBJECT_NAME    = STARLINK-36884
OBJECT_ID      = 2026-040M
CENTER_NAME    = EARTH
REF_FRAME      = TEME
TIME_SYSTEM    = UTC
MEAN_ELEMENT_THEORY = SGP/SGP4

EPOCH          = 2026-03-26T21:20:09.988800
MEAN_MOTION    = 15.75310501
ECCENTRICITY   = .0000914
INCLINATION    = 97.2859
RA_OF_ASC_NODE = 35.1970
ARG_OF_PERICENTER = 88.8843
MEAN_ANOMALY   = 271.2527

EPHEMERIS_TYPE = 0
CLASSIFICATION_TYPE = U
NORAD_CAT_ID   = 68026
ELEMENT_SET_NO = 999
REV_AT_EPOCH   = 406
BSTAR          = .18424E-2
MEAN_MOTION_DOT = .285548E-2
MEAN_MOTION_DDOT = 0

CCSDS_OMM_VERS = 2.0
CREATION_DATE  = 
ORIGINATOR     = 

OBJECT_NAME    = STARLINK-36940
OBJECT_ID      = 2026-040N
CENTER_NAME    = EARTH
REF_FRAME      = TEME
TIME_SYSTEM    = UTC
MEAN_ELEMENT_THEORY = SGP/SGP4

EPOCH          = 2026-03-26T08:55:38.683200
MEAN_MOTION    = 15.75174321
ECCENTRICITY   = .0003526
INCLINATION    = 97.2855
RA_OF_ASC_NODE = 34.6819
ARG_OF_PERICENTER = 99.4620
MEAN_ANOMALY   = 260.7044

EPHEMERIS_TYPE = 0
CLASSIFICATION_TYPE = U
NORAD_CAT_ID   = 68027
ELEMENT_SET_NO = 999
REV_AT_EPOCH   = 398
BSTAR          = .15624E-2
MEAN_MOTION_DOT = .239446E-2
MEAN_MOTION_DDOT = 0

CCSDS_OMM_VERS = 2.0
CREATION_DATE  = 
ORIGINATOR     = 

OBJECT_NAME    = STARLINK-36253
OBJECT_ID      = 2026-040P
CENTER_NAME    = EARTH
REF_FRAME      = TEME
TIME_SYSTEM    = UTC
MEAN_ELEMENT_THEORY = SGP/SGP4

EPOCH          = 2026-03-26T20:00:03.000384
MEAN_MOTION    = 15.41918543
ECCENTRICITY   = .0001729
INCLINATION    = 97.2846
RA_OF_ASC_NODE = 34.6935
ARG_OF_PERICENTER = 77.8282
MEAN_ANOMALY   = 352.8337

EPHEMERIS_TYPE = 0
CLASSIFICATION_TYPE = U
NORAD_CAT_ID   = 68028
ELEMENT_SET_NO = 999
REV_AT_EPOCH   = 528
BSTAR          = -.47532E-1
MEAN_MOTION_DOT = -.1819068E-1
MEAN_MOTION_DDOT = 0

CCSDS_OMM_VERS = 2.0
CREATION_DATE  = 
ORIGINATOR     = 

OBJECT_NAME    = STARLINK-36944
OBJECT_ID      = 2026-040Q
CENTER_NAME    = EARTH
REF_FRAME      = TEME
TIME_SYSTEM    = UTC
MEAN_ELEMENT_THEORY = SGP/SGP4

EPOCH          = 2026-03-26T19:47:09.809376
MEAN_MOTION    = 15.75283809
ECCENTRICITY   = .0001633
INCLINATION    = 97.2861
RA_OF_ASC_NODE = 35.1299
ARG_OF_PERICENTER = 121.2011
MEAN_ANOMALY   = 238.9415

EPHEMERIS_TYPE = 0
CLASSIFICATION_TYPE = U
NORAD_CAT_ID   = 68029
ELEMENT_SET_NO = 999
REV_AT_EPOCH   = 405
BSTAR          = .12854E-2
MEAN_MOTION_DOT = .196876E-2
MEAN_MOTION_DDOT = 0

CCSDS_OMM_VERS = 2.0
CREATION_DATE  = 
ORIGINATOR     = 

OBJECT_NAME    = STARLINK-36942
OBJECT_ID      = 2026-040R
CENTER_NAME    = EARTH
REF_FRAME      = TEME
TIME_SYSTEM    = UTC
MEAN_ELEMENT_THEORY = SGP/SGP4

EPOCH          = 2026-03-26T19:46:08.980320
MEAN_MOTION    = 15.75385124
ECCENTRICITY   = .000277
INCLINATION    = 97.2853
RA_OF_ASC_NODE = 35.1338
ARG_OF_PERICENTER = 111.5786
MEAN_ANOMALY   = 248.5774

EPHEMERIS_TYPE = 0
CLASSIFICATION_TYPE = U
NORAD_CAT_ID   = 68030
ELEMENT_SET_NO = 999
REV_AT_EPOCH   = 405
BSTAR          = .26377E-2
MEAN_MOTION_DOT = .416617E-2
MEAN_MOTION_DDOT = 0

CCSDS_OMM_VERS = 2.0
CREATION_DATE  = 
ORIGINATOR     = 

OBJECT_NAME    = STARLINK-36913
OBJECT_ID      = 2026-040S
CENTER_NAME    = EARTH
REF_FRAME      = TEME
TIME_SYSTEM    = UTC
MEAN_ELEMENT_THEORY = SGP/SGP4

EPOCH          = 2026-03-26T07:33:33.884064
MEAN_MOTION    = 15.74064466
ECCENTRICITY   = .0002572
INCLINATION    = 97.2867
RA_OF_ASC_NODE = 34.6029
ARG_OF_PERICENTER = 313.5891
MEAN_ANOMALY   = 46.5160

EPHEMERIS_TYPE = 0
CLASSIFICATION_TYPE = U
NORAD_CAT_ID   = 68031
ELEMENT_SET_NO = 999
REV_AT_EPOCH   = 397
BSTAR          = .18657E-2
MEAN_MOTION_DOT = .273711E-2
MEAN_MOTION_DDOT = 0

CCSDS_OMM_VERS = 2.0
CREATION_DATE  = 
ORIGINATOR     = 

OBJECT_NAME    = STARLINK-36935
OBJECT_ID      = 2026-040T
CENTER_NAME    = EARTH
REF_FRAME      = TEME
TIME_SYSTEM    = UTC
MEAN_ELEMENT_THEORY = SGP/SGP4

EPOCH          = 2026-03-26T08:57:40.697280
MEAN_MOTION    = 15.75169797
ECCENTRICITY   = .000318
INCLINATION    = 97.2867
RA_OF_ASC_NODE = 34.6763
ARG_OF_PERICENTER = 85.3265
MEAN_ANOMALY   = 274.8364

EPHEMERIS_TYPE = 0
CLASSIFICATION_TYPE = U
NORAD_CAT_ID   = 68032
ELEMENT_SET_NO = 999
REV_AT_EPOCH   = 398
BSTAR          = .18155E-2
MEAN_MOTION_DOT = .2795E-2
MEAN_MOTION_DDOT = 0

