STARLINK-36858          
1 68021U 26040G   26083.53835390  .00276588  00000+0  17848-2 0  9999
2 68021  97.2853  32.8877 0001694  78.8231 281.3225 15.75331784  3704
STARLINK-36916          
1 68022U 26040H   26085.82759768  .00397207  00000+0  25217-2 0  9999
2 68022  97.2852  35.1261 0003062 118.2602 241.8973 15.75375377  4055
STARLINK-36871          
1 68023U 26040J   26085.38256204  .00272040  00000+0  17676-2 0  9995
2 68023  97.2872  34.6586 0002797  92.2067 267.9519 15.75183547  3984
STARLINK-36891          
1 68024U 26040K   26085.57243760  .00203367  00000+0  13299-2 0  9993
2 68024  97.2865  34.8608 0002001  70.3128 289.8353 15.75227538  4010
STARLINK-36378          
1 68025U 26040L   26085.82512457  .00188969  00000+0  12353-2 0  9994
2 68025  97.2851  35.1324 0001709 118.0918 242.0521 15.75277100  4058
STARLINK-36884          
1 68026U 26040M   26085.88900450  .00285548  00000+0  18424-2 0  9991
2 68026  97.2859  35.1970 0000914  88.8843 271.2527 15.75310501  4066
STARLINK-36940          
1 68027U 26040N   26085.37197550  .00239446  00000+0  15624-2 0  9990
2 68027  97.2855  34.6819 0003526  99.4620 260.7044 15.75174321  3987
STARLINK-36253          
1 68028U 26040P   26085.83336806 -.01819068  00000+0 -47532-1 0  9990
2 68028  97.2846  34.6935 0001729  77.8282 352.8337 15.41918543  5282
STARLINK-36944          
1 68029U 26040Q   26085.82441909  .00196876  00000+0  12854-2 0  9993
2 68029  97.2861  35.1299 0001633 121.2011 238.9415 15.75283809  4059
STARLINK-36942          
1 68030U 26040R   26085.82371505  .00416617  00000+0  26377-2 0  9992
2 68030  97.2853  35.1338 0002770 111.5786 248.5774 15.75385124  4058
STARLINK-36913          
1 68031U 26040S   26085.31497551  .00273711  00000+0  18657-2 0  9995
2 68031  97.2867  34.6029 0002572 313.5891  46.5160 15.74064466  3973
STARLINK-36935          
1 68032U 26040T   26085.37338770  .00279500  00000+0  18155-2 0  9994
2 68032  97.2867  34.6763 0003180  85.3265 274.8364 15.75169797  3981
